[Satellite]
VERSION=1.1
NAME=OPTICUBE 04
NICKNAME=OPTICUBE 04
TLE1=1 41851U 16067D   22342.09662175  .00001646  00000+0  14334-3 0  9992
TLE2=2 41851  98.0197 117.6290 0009112 118.2233 241.9910 14.98351885331706
STATUS=0
